ONEWEB-0423             
1 51627U 22012F   26081.80529988  .00000045  00000+0  83740-4 0  9998
2 51627  87.9176  23.0135 0001822  82.6076 277.5262 13.17648688202329
ONEWEB-0425             
1 51628U 22012G   26082.20544219  .00000472  00000+0  13145-2 0  9992
2 51628  87.8806  53.3772 0001540  80.4366 279.6935 13.10374352198069
ONEWEB-0428             
1 51629U 22012H   26082.18550593 -.00000437  00000+0 -12877-2 0  9996
2 51629  87.8798  53.3932 0001903  84.3174 275.8170 13.10375172198027
ONEWEB-0431             
1 51630U 22012J   26082.15549843 -.00000001  00000+0 -39772-4 0  9993
2 51630  87.8801  53.3857 0002539  81.0312 279.1103 13.10371454198071
ONEWEB-0434             
1 51631U 22012K   26082.20890073  .00000620  00000+0  17393-2 0  9992
2 51631  87.8798  53.4022 0001249  81.0601 279.0668 13.10374170198062
ONEWEB-0435             
1 51632U 22012L   26082.21706070 -.00000931  00000+0 -27038-2 0  9991
2 51632  87.8793  53.3912 0002072  91.3467 268.7898 13.10381575198050
ONEWEB-0436             
1 51633U 22012M   26081.87279170  .00000055  00000+0  10749-3 0  9996
2 51633  87.9181  22.9787 0002038  83.4552 276.6811 13.17647863202314
ONEWEB-0438             
1 51634U 22012N   26082.20045704  .00000358  00000+0  98888-3 0  9995
2 51634  87.8802  53.3954 0001709  79.9116 280.2204 13.10376250198085
ONEWEB-0439             
1 51635U 22012P   26082.20378146  .00000500  00000+0  13956-2 0  9996
2 51635  87.8798  53.3837 0001834  85.8233 274.3104 13.10376411198065
ONEWEB-0442             
1 51636U 22012Q   26082.09302096  .00000009  00000+0 -92960-5 0  9995
2 51636  87.9171  22.9731 0001420  64.4684 295.6594 13.17649671202334
ONEWEB-0443             
1 51637U 22012R   26082.18835422 -.00000005  00000+0 -45977-4 0  9992
2 51637  87.9168  22.9569 0001669  88.8403 271.2919 13.17648661202399
ONEWEB-0444             
1 51638U 22012S   26082.19381311  .00000023  00000+0  28700-4 0  9990
2 51638  87.8798  53.3848 0001887  84.6469 275.4873 13.10376139198079
ONEWEB-0445             
1 51639U 22012T   26082.21540512  .00000688  00000+0  19344-2 0  9993
2 51639  87.8805  53.3607 0002039  77.3857 282.7498 13.10373484198087
ONEWEB-0446             
1 51640U 22012U   26082.19215229 -.00000107  00000+0 -34356-3 0  9995
2 51640  87.8800  53.4011 0001936  78.3908 281.7437 13.10375353198064
ONEWEB-0448             
1 51641U 22012V   26082.19715043  .00000216  00000+0  58343-3 0  9996
2 51641  87.8800  53.3982 0001873  84.1257 276.0084 13.10380355198033
ONEWEB-0449             
1 51642U 22012W   26082.20211935  .00000396  00000+0  10984-2 0  9997
2 51642  87.8807  53.3768 0001427  81.3364 278.7925 13.10375283198044
ONEWEB-0451             
1 51643U 22012X   26082.09723307 -.00000018  00000+0 -80046-4 0  9997
2 51643  87.9181  22.9295 0001750  79.4020 280.7308 13.17649863202324
