[{"OBJECT_NAME":"ONEWEB-0423","OBJECT_ID":"2022-012F","EPOCH":"2026-03-22T19:19:37.909632","MEAN_MOTION":13.17648688,"ECCENTRICITY":0.00018226,"INCLINATION":87.9176,"RA_OF_ASC_NODE":23.0135,"ARG_OF_PERICENTER":82.6076,"MEAN_ANOMALY":277.5262,"EPHEMERIS_TYPE":0,"CLASSIFICATION_TYPE":"U","NORAD_CAT_ID":51627,"ELEMENT_SET_NO":999,"REV_AT_EPOCH":20232,"BSTAR":8.3739818e-5,"MEAN_MOTION_DOT":4.5e-7,"MEAN_MOTION_DDOT":0},{"OBJECT_NAME":"ONEWEB-0425","OBJECT_ID":"2022-012G","EPOCH":"2026-03-23T04:55:50.205216","MEAN_MOTION":13.10374352,"ECCENTRICITY":0.000154,"INCLINATION":87.8806,"RA_OF_ASC_NODE":53.3772,"ARG_OF_PERICENTER":80.4366,"MEAN_ANOMALY":279.6935,"EPHEMERIS_TYPE":0,"CLASSIFICATION_TYPE":"U","NORAD_CAT_ID":51628,"ELEMENT_SET_NO":999,"REV_AT_EPOCH":19806,"BSTAR":0.0013145392,"MEAN_MOTION_DOT":4.72e-6,"MEAN_MOTION_DDOT":0},{"OBJECT_NAME":"ONEWEB-0428","OBJECT_ID":"2022-012H","EPOCH":"2026-03-23T04:27:07.712352","MEAN_MOTION":13.10375172,"ECCENTRICITY":0.00019032,"INCLINATION":87.8798,"RA_OF_ASC_NODE":53.3932,"ARG_OF_PERICENTER":84.3174,"MEAN_ANOMALY":275.817,"EPHEMERIS_TYPE":0,"CLASSIFICATION_TYPE":"U","NORAD_CAT_ID":51629,"ELEMENT_SET_NO":999,"REV_AT_EPOCH":19802,"BSTAR":-0.0012877234,"MEAN_MOTION_DOT":-4.37e-6,"MEAN_MOTION_DDOT":0},{"OBJECT_NAME":"ONEWEB-0431","OBJECT_ID":"2022-012J","EPOCH":"2026-03-23T03:43:55.064352","MEAN_MOTION":13.10371454,"ECCENTRICITY":0.00025393,"INCLINATION":87.8801,"RA_OF_ASC_NODE":53.3857,"ARG_OF_PERICENTER":81.0312,"MEAN_ANOMALY":279.1103,"EPHEMERIS_TYPE":0,"CLASSIFICATION_TYPE":"U","NORAD_CAT_ID":51630,"ELEMENT_SET_NO":999,"REV_AT_EPOCH":19807,"BSTAR":-3.9771851e-5,"MEAN_MOTION_DOT":-1.0e-8,"MEAN_MOTION_DDOT":0},{"OBJECT_NAME":"ONEWEB-0434","OBJECT_ID":"2022-012K","EPOCH":"2026-03-23T05:00:49.023072","MEAN_MOTION":13.1037417,"ECCENTRICITY":0.00012492,"INCLINATION":87.8798,"RA_OF_ASC_NODE":53.4022,"ARG_OF_PERICENTER":81.0601,"MEAN_ANOMALY":279.0668,"EPHEMERIS_TYPE":0,"CLASSIFICATION_TYPE":"U","NORAD_CAT_ID":51631,"ELEMENT_SET_NO":999,"REV_AT_EPOCH":19806,"BSTAR":0.0017393413,"MEAN_MOTION_DOT":6.2e-6,"MEAN_MOTION_DDOT":0},{"OBJECT_NAME":"ONEWEB-0435","OBJECT_ID":"2022-012L","EPOCH":"2026-03-23T05:12:34.044480","MEAN_MOTION":13.10381575,"ECCENTRICITY":0.00020725,"INCLINATION":87.8793,"RA_OF_ASC_NODE":53.3912,"ARG_OF_PERICENTER":91.3467,"MEAN_ANOMALY":268.7898,"EPHEMERIS_TYPE":0,"CLASSIFICATION_TYPE":"U","NORAD_CAT_ID":51632,"ELEMENT_SET_NO":999,"REV_AT_EPOCH":19805,"BSTAR":-0.002703765,"MEAN_MOTION_DOT":-9.31e-6,"MEAN_MOTION_DDOT":0},{"OBJECT_NAME":"ONEWEB-0436","OBJECT_ID":"2022-012M","EPOCH":"2026-03-22T20:56:49.202880","MEAN_MOTION":13.17647863,"ECCENTRICITY":0.00020384,"INCLINATION":87.9181,"RA_OF_ASC_NODE":22.9787,"ARG_OF_PERICENTER":83.4552,"MEAN_ANOMALY":276.6811,"EPHEMERIS_TYPE":0,"CLASSIFICATION_TYPE":"U","NORAD_CAT_ID":51633,"ELEMENT_SET_NO":999,"REV_AT_EPOCH":20231,"BSTAR":0.00010749237,"MEAN_MOTION_DOT":5.5e-7,"MEAN_MOTION_DDOT":0},{"OBJECT_NAME":"ONEWEB-0438","OBJECT_ID":"2022-012N","EPOCH":"2026-03-23T04:48:39.488256","MEAN_MOTION":13.1037625,"ECCENTRICITY":0.00017091,"INCLINATION":87.8802,"RA_OF_ASC_NODE":53.3954,"ARG_OF_PERICENTER":79.9116,"MEAN_ANOMALY":280.2204,"EPHEMERIS_TYPE":0,"CLASSIFICATION_TYPE":"U","NORAD_CAT_ID":51634,"ELEMENT_SET_NO":999,"REV_AT_EPOCH":19808,"BSTAR":0.00098888376,"MEAN_MOTION_DOT":3.58e-6,"MEAN_MOTION_DDOT":0},{"OBJECT_NAME":"ONEWEB-0439","OBJECT_ID":"2022-012P","EPOCH":"2026-03-23T04:53:26.718144","MEAN_MOTION":13.10376411,"ECCENTRICITY":0.00018342,"INCLINATION":87.8798,"RA_OF_ASC_NODE":53.3837,"ARG_OF_PERICENTER":85.8233,"MEAN_ANOMALY":274.3104,"EPHEMERIS_TYPE":0,"CLASSIFICATION_TYPE":"U","NORAD_CAT_ID":51635,"ELEMENT_SET_NO":999,"REV_AT_EPOCH":19806,"BSTAR":0.0013955759,"MEAN_MOTION_DOT":5.0e-6,"MEAN_MOTION_DDOT":0},{"OBJECT_NAME":"ONEWEB-0442","OBJECT_ID":"2022-012Q","EPOCH":"2026-03-23T02:13:57.010944","MEAN_MOTION":13.17649671,"ECCENTRICITY":0.00014202,"INCLINATION":87.9171,"RA_OF_ASC_NODE":22.9731,"ARG_OF_PERICENTER":64.4684,"MEAN_ANOMALY":295.6594,"EPHEMERIS_TYPE":0,"CLASSIFICATION_TYPE":"U","NORAD_CAT_ID":51636,"ELEMENT_SET_NO":999,"REV_AT_EPOCH":20233,"BSTAR":-9.296024e-6,"MEAN_MOTION_DOT":9.0e-8,"MEAN_MOTION_DDOT":0},{"OBJECT_NAME":"ONEWEB-0443","OBJECT_ID":"2022-012R","EPOCH":"2026-03-23T04:31:13.804608","MEAN_MOTION":13.17648661,"ECCENTRICITY":0.00016692,"INCLINATION":87.9168,"RA_OF_ASC_NODE":22.9569,"ARG_OF_PERICENTER":88.8403,"MEAN_ANOMALY":271.2919,"EPHEMERIS_TYPE":0,"CLASSIFICATION_TYPE":"U","NORAD_CAT_ID":51637,"ELEMENT_SET_NO":999,"REV_AT_EPOCH":20239,"BSTAR":-4.5976912e-5,"MEAN_MOTION_DOT":-5.0e-8,"MEAN_MOTION_DDOT":0},{"OBJECT_NAME":"ONEWEB-0444","OBJECT_ID":"2022-012S","EPOCH":"2026-03-23T04:39:05.452704","MEAN_MOTION":13.10376139,"ECCENTRICITY":0.00018876,"INCLINATION":87.8798,"RA_OF_ASC_NODE":53.3848,"ARG_OF_PERICENTER":84.6469,"MEAN_ANOMALY":275.4873,"EPHEMERIS_TYPE":0,"CLASSIFICATION_TYPE":"U","NORAD_CAT_ID":51638,"ELEMENT_SET_NO":999,"REV_AT_EPOCH":19807,"BSTAR":2.8699812e-5,"MEAN_MOTION_DOT":2.3e-7,"MEAN_MOTION_DDOT":0},{"OBJECT_NAME":"ONEWEB-0445","OBJECT_ID":"2022-012T","EPOCH":"2026-03-23T05:10:11.002368","MEAN_MOTION":13.10373484,"ECCENTRICITY":0.00020397,"INCLINATION":87.8805,"RA_OF_ASC_NODE":53.3607,"ARG_OF_PERICENTER":77.3857,"MEAN_ANOMALY":282.7498,"EPHEMERIS_TYPE":0,"CLASSIFICATION_TYPE":"U","NORAD_CAT_ID":51639,"ELEMENT_SET_NO":999,"REV_AT_EPOCH":19808,"BSTAR":0.0019344403,"MEAN_MOTION_DOT":6.88e-6,"MEAN_MOTION_DDOT":0},{"OBJECT_NAME":"ONEWEB-0446","OBJECT_ID":"2022-012U","EPOCH":"2026-03-23T04:36:41.957856","MEAN_MOTION":13.10375353,"ECCENTRICITY":0.00019368,"INCLINATION":87.88,"RA_OF_ASC_NODE":53.4011,"ARG_OF_PERICENTER":78.3908,"MEAN_ANOMALY":281.7437,"EPHEMERIS_TYPE":0,"CLASSIFICATION_TYPE":"U","NORAD_CAT_ID":51640,"ELEMENT_SET_NO":999,"REV_AT_EPOCH":19806,"BSTAR":-0.00034356186,"MEAN_MOTION_DOT":-1.07e-6,"MEAN_MOTION_DDOT":0},{"OBJECT_NAME":"ONEWEB-0448","OBJECT_ID":"2022-012V","EPOCH":"2026-03-23T04:43:53.797152","MEAN_MOTION":13.10380355,"ECCENTRICITY":0.00018734,"INCLINATION":87.88,"RA_OF_ASC_NODE":53.3982,"ARG_OF_PERICENTER":84.1257,"MEAN_ANOMALY":276.0084,"EPHEMERIS_TYPE":0,"CLASSIFICATION_TYPE":"U","NORAD_CAT_ID":51641,"ELEMENT_SET_NO":999,"REV_AT_EPOCH":19803,"BSTAR":0.00058343143,"MEAN_MOTION_DOT":2.16e-6,"MEAN_MOTION_DDOT":0},{"OBJECT_NAME":"ONEWEB-0449","OBJECT_ID":"2022-012W","EPOCH":"2026-03-23T04:51:03.111840","MEAN_MOTION":13.10375283,"ECCENTRICITY":0.00014278,"INCLINATION":87.8807,"RA_OF_ASC_NODE":53.3768,"ARG_OF_PERICENTER":81.3364,"MEAN_ANOMALY":278.7925,"EPHEMERIS_TYPE":0,"CLASSIFICATION_TYPE":"U","NORAD_CAT_ID":51642,"ELEMENT_SET_NO":999,"REV_AT_EPOCH":19804,"BSTAR":0.0010983535,"MEAN_MOTION_DOT":3.96e-6,"MEAN_MOTION_DDOT":0},{"OBJECT_NAME":"ONEWEB-0451","OBJECT_ID":"2022-012X","EPOCH":"2026-03-23T02:20:00.937248","MEAN_MOTION":13.17649863,"ECCENTRICITY":0.00017508,"INCLINATION":87.9181,"RA_OF_ASC_NODE":22.9295,"ARG_OF_PERICENTER":79.402,"MEAN_ANOMALY":280.7308,"EPHEMERIS_TYPE":0,"CLASSIFICATION_TYPE":"U","NORAD_CAT_ID":51643,"ELEMENT_SET_NO":999,"REV_AT_EPOCH":20232,"BSTAR":-8.0046333e-5,"MEAN_MOTION_DOT":-1.8e-7,"MEAN_MOTION_DDOT":0}]
